COMPASS 2               
1 42777U 17036N   17345.89327975  .00001801  00000-0  84039-4 0  9992
2 42777  97.4299  43.4702 0013332  11.3861 348.7674 15.21071796 26030
